{
    "links": {
        "self": "http://www.neowsapp.com/rest/v1/neo/3547635?api_key=iIulBulltgU6a56xZRHN4H3l9WmuAYTsLGpBGhQ2"
    },
    "id": "3547635",
    "neo_reference_id": "3547635",
    "name": "(2010 SV15)",
    "designation": "2010 SV15",
    "nasa_jpl_url": "http://ssd.jpl.nasa.gov/sbdb.cgi?sstr=3547635",
    "absolute_magnitude_h": 26.7,
    "estimated_diameter": {
        "kilometers": {
            "estimated_diameter_min": 0.0121494041,
            "estimated_diameter_max": 0.0271668934
        },
        "meters": {
            "estimated_diameter_min": 12.14940408,
            "estimated_diameter_max": 27.1668934089
        },
        "miles": {
            "estimated_diameter_min": 0.0075492874,
            "estimated_diameter_max": 0.0168807197
        },
        "feet": {
            "estimated_diameter_min": 39.8602508817,
            "estimated_diameter_max": 89.1302305717
        }
    },
    "is_potentially_hazardous_asteroid": false,
    "close_approach_data": [
        {
            "close_approach_date": "2010-09-21",
            "close_approach_date_full": "2010-Sep-21 21:55",
            "epoch_date_close_approach": 1285106100000,
            "relative_velocity": {
                "kilometers_per_second": "8.8977090804",
                "kilometers_per_hour": "32031.75268954",
                "miles_per_hour": "19903.2854420089"
            },
            "miss_distance": {
                "astronomical": "0.0354134133",
                "lunar": "13.7758177737",
                "kilometers": "5297771.199109671",
                "miles": "3291882.3765126198"
            },
            "orbiting_body": "Earth"
        }
    ],
    "orbital_data": {
        "orbit_id": "6",
        "orbit_determination_date": "2017-04-06 08:56:30",
        "first_observation_date": "2010-09-30",
        "last_observation_date": "2010-09-30",
        "data_arc_in_days": null,
        "observations_used": 11,
        "orbit_uncertainty": "9",
        "minimum_orbit_intersection": ".0352739",
        "jupiter_tisserand_invariant": "4.890",
        "epoch_osculation": "2455469.5",
        "eccentricity": ".2698404162827061",
        "semi_major_axis": "1.320358858575124",
        "inclination": "11.87202225356766",
        "ascending_node_longitude": "184.7217654551905",
        "orbital_period": "554.1615664114692",
        "perihelion_distance": ".9640726745346541",
        "perihelion_argument": "127.819380388328",
        "aphelion_distance": "1.676645042615595",
        "perihelion_time": "2455420.553186542752",
        "mean_anomaly": "31.7973203351415",
        "mean_motion": ".6496300389996683",
        "equinox": "J2000",
        "orbit_class": {
            "orbit_class_type": "APO",
            "orbit_class_description": "Near-Earth asteroid orbits which cross the Earth’s orbit similar to that of 1862 Apollo",
            "orbit_class_range": "a (semi-major axis) > 1.0 AU; q (perihelion) < 1.017 AU"
        }
    },
    "is_sentry_object": false
}